[
    {
        "Altitude(m)": 557534.7461501521,
        "Argument of Periapsis(deg)": 0.019868973332140504,
        "Eccentricity": 0.0,
        "Inclination(deg)": 53.0,
        "Latitude(deg)": -15.534100321993007,
        "Longitude(deg)": -80.35676757237955,
        "Mean Anomaly(deg)": -160.6342213972672,
        "RAAN(deg)": 189.9704301055841,
        "Satellite Name": "Starlink Shell 1 846",
        "Satellite Number": 846,
        "Semi-Major Axis(m)": 6931778.249405717,
        "Time(s)": 570
    },
    {
        "Altitude(m)": 557677.5282159663,
        "Argument of Periapsis(deg)": 0.02021755181165174,
        "Eccentricity": 0.0,
        "Inclination(deg)": 53.0,
        "Latitude(deg)": -16.025854013977387,
        "Longitude(deg)": -79.9918587763387,
        "Mean Anomaly(deg)": -160.00739019371053,
        "RAAN(deg)": 189.9699113355066,
        "Satellite Name": "Starlink Shell 1 846",
        "Satellite Number": 846,
        "Semi-Major Axis(m)": 6931778.249405717,
        "Time(s)": 580
    },
    {
        "Altitude(m)": 557822.1894258006,
        "Argument of Periapsis(deg)": 0.020566130291162974,
        "Eccentricity": 0.0,
        "Inclination(deg)": 53.0,
        "Latitude(deg)": -16.5167987489732,
        "Longitude(deg)": -79.62496970166052,
        "Mean Anomaly(deg)": -159.3805589901538,
        "RAAN(deg)": 189.96939256542913,
        "Satellite Name": "Starlink Shell 1 846",
        "Satellite Number": 846,
        "Semi-Major Axis(m)": 6931778.249405717,
        "Time(s)": 590
    },
    {
        "Altitude(m)": 557968.6820790888,
        "Argument of Periapsis(deg)": 0.020914708770674213,
        "Eccentricity": 0.0,
        "Inclination(deg)": 53.0,
        "Latitude(deg)": -17.006905045073285,
        "Longitude(deg)": -79.25602939009481,
        "Mean Anomaly(deg)": -158.75372778659704,
        "RAAN(deg)": 189.96887379535167,
        "Satellite Name": "Starlink Shell 1 846",
        "Satellite Number": 846,
        "Semi-Major Axis(m)": 6931778.249405717,
        "Time(s)": 600
    },
    {
        "Altitude(m)": 558116.9575104524,
        "Argument of Periapsis(deg)": 0.021263287250185448,
        "Eccentricity": 0.0,
        "Inclination(deg)": 53.0,
        "Latitude(deg)": -17.496142970110377,
        "Longitude(deg)": -78.8849660293701,
        "Mean Anomaly(deg)": -158.12689658304038,
        "RAAN(deg)": 189.96835502527418,
        "Satellite Name": "Starlink Shell 1 846",
        "Satellite Number": 846,
        "Semi-Major Axis(m)": 6931778.249405717,
        "Time(s)": 610
    },
    {
        "Altitude(m)": 558266.9661110998,
        "Argument of Periapsis(deg)": 0.021611865729696686,
        "Eccentricity": 0.0,
        "Inclination(deg)": 53.0,
        "Latitude(deg)": -17.98448212351073,
        "Longitude(deg)": -78.51170642257534,
        "Mean Anomaly(deg)": -157.5000653794836,
        "RAAN(deg)": 189.96783625519672,
        "Satellite Name": "Starlink Shell 1 846",
        "Satellite Number": 846,
        "Semi-Major Axis(m)": 6931778.249405717,
        "Time(s)": 620
    },
    {
        "Altitude(m)": 558418.6573507483,
        "Argument of Periapsis(deg)": 0.02196044420920792,
        "Eccentricity": 0.0,
        "Inclination(deg)": 53.0,
        "Latitude(deg)": -18.471891617745197,
        "Longitude(deg)": -78.13617713868221,
        "Mean Anomaly(deg)": -156.87323417592697,
        "RAAN(deg)": 189.96731748511922,
        "Satellite Name": "Starlink Shell 1 846",
        "Satellite Number": 846,
        "Semi-Major Axis(m)": 6931778.249405717,
        "Time(s)": 630
    },
    {
        "Altitude(m)": 558571.9797999673,
        "Argument of Periapsis(deg)": 0.02230902268871916,
        "Eccentricity": 0.0,
        "Inclination(deg)": 53.0,
        "Latitude(deg)": -18.958340059369657,
        "Longitude(deg)": -77.75830314181573,
        "Mean Anomaly(deg)": -156.2464029723702,
        "RAAN(deg)": 189.96679871504173,
        "Satellite Name": "Starlink Shell 1 846",
        "Satellite Number": 846,
        "Semi-Major Axis(m)": 6931778.249405717,
        "Time(s)": 640
    },
    {
        "Altitude(m)": 558726.881152941,
        "Argument of Periapsis(deg)": 0.022657601168230398,
        "Eccentricity": 0.0,
        "Inclination(deg)": 53.0,
        "Latitude(deg)": -19.443795529639473,
        "Longitude(deg)": -77.37800894223538,
        "Mean Anomaly(deg)": -155.6195717688135,
        "RAAN(deg)": 189.96627994496427,
        "Satellite Name": "Starlink Shell 1 846",
        "Satellite Number": 846,
        "Semi-Major Axis(m)": 6931778.249405717,
        "Time(s)": 650
    },
    {
        "Altitude(m)": 558883.3082506821,
        "Argument of Periapsis(deg)": 0.023006179647741636,
        "Eccentricity": 0.0,
        "Inclination(deg)": 53.0,
        "Latitude(deg)": -19.92822556469068,
        "Longitude(deg)": -76.99521806664185,
        "Mean Anomaly(deg)": -154.99274056525678,
        "RAAN(deg)": 189.9657611748868,
        "Satellite Name": "Starlink Shell 1 846",
        "Satellite Number": 846,
        "Semi-Major Axis(m)": 6931778.249405717,
        "Time(s)": 660
    },
    {
        "Altitude(m)": 559041.207104651,
        "Argument of Periapsis(deg)": 0.023354758127252868,
        "Eccentricity": 0.0,
        "Inclination(deg)": 53.0,
        "Latitude(deg)": -20.41159713527394,
        "Longitude(deg)": -76.60985252883708,
        "Mean Anomaly(deg)": -154.36590936170012,
        "RAAN(deg)": 189.96524240480932,
        "Satellite Name": "Starlink Shell 1 846",
        "Satellite Number": 846,
        "Semi-Major Axis(m)": 6931778.249405717,
        "Time(s)": 670
    },
    {
        "Altitude(m)": 559200.5229207647,
        "Argument of Periapsis(deg)": 0.023703336606764106,
        "Eccentricity": 0.0,
        "Inclination(deg)": 53.0,
        "Latitude(deg)": -20.893876626033446,
        "Longitude(deg)": -76.22183381366767,
        "Mean Anomaly(deg)": -153.73907815814337,
        "RAAN(deg)": 189.96472363473185,
        "Satellite Name": "Starlink Shell 1 846",
        "Satellite Number": 846,
        "Semi-Major Axis(m)": 6931778.249405717,
        "Time(s)": 680
    },
    {
        "Altitude(m)": 559361.2001237932,
        "Argument of Periapsis(deg)": 0.024051915086275345,
        "Eccentricity": 0.0,
        "Inclination(deg)": 53.0,
        "Latitude(deg)": -21.375029814319166,
        "Longitude(deg)": -75.83108234856797,
        "Mean Anomaly(deg)": -153.11224695458662,
        "RAAN(deg)": 189.96420486465442,
        "Satellite Name": "Starlink Shell 1 846",
        "Satellite Number": 846,
        "Semi-Major Axis(m)": 6931778.249405717,
        "Time(s)": 690
    },
    {
        "Altitude(m)": 559523.1823821382,
        "Argument of Periapsis(deg)": 0.024400493565786583,
        "Eccentricity": 0.0,
        "Inclination(deg)": 53.0,
        "Latitude(deg)": -21.85502184852399,
        "Longitude(deg)": -75.43751697564483,
        "Mean Anomaly(deg)": -152.48541575102993,
        "RAAN(deg)": 189.9636860945769,
        "Satellite Name": "Starlink Shell 1 846",
        "Satellite Number": 846,
        "Semi-Major Axis(m)": 6931778.249405717,
        "Time(s)": 700
    },
    {
        "Altitude(m)": 559686.4126329608,
        "Argument of Periapsis(deg)": 0.024749072045297815,
        "Eccentricity": 0.0,
        "Inclination(deg)": 53.0,
        "Latitude(deg)": -22.333817225937224,
        "Longitude(deg)": -75.0410559372555,
        "Mean Anomaly(deg)": -151.8585845474732,
        "RAAN(deg)": 189.96316732449947,
        "Satellite Name": "Starlink Shell 1 846",
        "Satellite Number": 846,
        "Semi-Major Axis(m)": 6931778.249405717,
        "Time(s)": 710
    },
    {
        "Altitude(m)": 559850.8331076857,
        "Argument of Periapsis(deg)": 0.025097650524809053,
        "Eccentricity": 0.0,
        "Inclination(deg)": 53.0,
        "Latitude(deg)": -22.811379770105606,
        "Longitude(deg)": -74.6416163494108,
        "Mean Anomaly(deg)": -151.23175334391652,
        "RAAN(deg)": 189.96264855442197,
        "Satellite Name": "Starlink Shell 1 846",
        "Satellite Number": 846,
        "Semi-Major Axis(m)": 6931778.249405717,
        "Time(s)": 720
    },
    {
        "Altitude(m)": 560016.3853577825,
        "Argument of Periapsis(deg)": 0.02544622900432029,
        "Eccentricity": 0.0,
        "Inclination(deg)": 53.0,
        "Latitude(deg)": -23.28767260769529,
        "Longitude(deg)": -74.23911367596745,
        "Mean Anomaly(deg)": -150.60492214035975,
        "RAAN(deg)": 189.9621297843445,
        "Satellite Name": "Starlink Shell 1 846",
        "Satellite Number": 846,
        "Semi-Major Axis(m)": 6931778.249405717,
        "Time(s)": 730
    },
    {
        "Altitude(m)": 560183.0102809443,
        "Argument of Periapsis(deg)": 0.02579480748383153,
        "Eccentricity": 0.0,
        "Inclination(deg)": 53.0,
        "Latitude(deg)": -23.76265814484859,
        "Longitude(deg)": -73.83346271658115,
        "Mean Anomaly(deg)": -149.97809093680306,
        "RAAN(deg)": 189.96161101426702,
        "Satellite Name": "Starlink Shell 1 846",
        "Satellite Number": 846,
        "Semi-Major Axis(m)": 6931778.249405717,
        "Time(s)": 740
    },
    {
        "Altitude(m)": 560350.6481475144,
        "Argument of Periapsis(deg)": 0.026143385963342765,
        "Eccentricity": 0.0,
        "Inclination(deg)": 53.0,
        "Latitude(deg)": -24.23629804303002,
        "Longitude(deg)": -73.42457708277561,
        "Mean Anomaly(deg)": -149.35125973324634,
        "RAAN(deg)": 189.96109224418956,
        "Satellite Name": "Starlink Shell 1 846",
        "Satellite Number": 846,
        "Semi-Major Axis(m)": 6931778.249405717,
        "Time(s)": 750
    }
]